0 PEGASUS R/B
1 25506U 98060B   13280.85221193  .00000367  00000-0  51582-4 0   853
2 25506 024.9982 061.0482 0023777 000.8909 131.0761 14.45476544790860
0 PEGASUS R/B
1 25506U 98060B   13282.49617495  .00000390  00000-0  58203-4 0   863
2 25506 024.9984 050.9109 0023781 018.0353 046.0192 14.45478150791100
0 PEGASUS R/B
1 25506U 98060B   13283.53539392  .00000380  00000-0  55276-4 0   875
2 25506 024.9985 044.5026 0023812 028.9162 053.9234 14.45478589791257
0 PEGASUS R/B
1 25506U 98060B   13286.72565780  .00000417  00000-0  65596-4 0   898
2 25506 024.9987 024.8304 0023747 062.1483 095.6517 14.45479469791718
0 PEGASUS R/B
1 25506U 98060B   13288.51398015  .00000503  00000-0  89588-4 0   907
2 25506 024.9987 013.8032 0023696 080.8929 041.7448 14.45480929791975
0 PEGASUS R/B
1 25506U 98060B   13289.62368286  .00000456  00000-0  76301-4 0   914
2 25506 024.9987 006.9602 0023644 092.5944 056.3637 14.45481643792136
0 PEGASUS R/B
1 25506U 98060B   13291.18861359  .00000446  00000-0  73691-4 0   926
2 25506 024.9986 357.3104 0023573 109.0248 279.9527 14.45482421792368
0 PEGASUS R/B
1 25506U 98060B   13292.52445929  .00000462  00000-0  77901-4 0   933
2 25506 024.9985 349.0733 0023514 123.0609 031.4208 14.45483138792559
0 PEGASUS R/B
1 25506U 98060B   13293.55295918  .00000500  00000-0  88662-4 0   948
2 25506 024.9985 342.7313 0023455 133.9174 343.4775 14.45483625792707
0 PEGASUS R/B
1 25506U 98060B   13294.59208016  .00000503  00000-0  89480-4 0   959
2 25506 024.9985 336.3237 0023391 144.9117 350.7795 14.45484399792857
